{"fetched_at":"2026-07-08T17:59:37.298Z","source":"https://celestrak.org/NORAD/elements/gp.php?NAME=BRO&FORMAT=JSON","constellation":"unseenlabs","records":[{"OBJECT_NAME":"BRO-1","OBJECT_ID":"2019-054A","EPOCH":"2026-07-08T06:58:15.108960","CLASSIFICATION_TYPE":"U","MEAN_MOTION":16.05929499,"ECCENTRICITY":0.000826,"INCLINATION":44.9844,"RA_OF_ASC_NODE":161.5574,"ARG_OF_PERICENTER":120.2181,"MEAN_ANOMALY":239.9551,"EPHEMERIS_TYPE":0,"NORAD_CAT_ID":44495,"ELEMENT_SET_NO":999,"REV_AT_EPOCH":38311,"BSTAR":0.00081974,"MEAN_MOTION_DOT":0.00620391,"MEAN_MOTION_DDOT":0.00019596},{"OBJECT_NAME":"BRO-5","OBJECT_ID":"2022-002CF","EPOCH":"2026-07-08T12:27:01.204416","CLASSIFICATION_TYPE":"U","MEAN_MOTION":15.48596866,"ECCENTRICITY":0.0004675,"INCLINATION":97.2984,"RA_OF_ASC_NODE":263.3927,"ARG_OF_PERICENTER":229.0872,"MEAN_ANOMALY":130.9975,"EPHEMERIS_TYPE":0,"NORAD_CAT_ID":51061,"ELEMENT_SET_NO":999,"REV_AT_EPOCH":24955,"BSTAR":0.00038422,"MEAN_MOTION_DOT":0.0002044,"MEAN_MOTION_DDOT":0},{"OBJECT_NAME":"BRO-6","OBJECT_ID":"2022-047AE","EPOCH":"2026-07-08T13:16:43.110336","CLASSIFICATION_TYPE":"U","MEAN_MOTION":15.5216796,"ECCENTRICITY":0.0003155,"INCLINATION":97.3388,"RA_OF_ASC_NODE":281.0409,"ARG_OF_PERICENTER":347.0626,"MEAN_ANOMALY":13.0545,"EPHEMERIS_TYPE":0,"NORAD_CAT_ID":52422,"ELEMENT_SET_NO":999,"REV_AT_EPOCH":23446,"BSTAR":0.00051785,"MEAN_MOTION_DOT":0.00031325,"MEAN_MOTION_DDOT":0},{"OBJECT_NAME":"BRO-8","OBJECT_ID":"2023-001C","EPOCH":"2026-07-08T11:39:12.537792","CLASSIFICATION_TYPE":"U","MEAN_MOTION":15.50436111,"ECCENTRICITY":0.000557,"INCLINATION":97.3191,"RA_OF_ASC_NODE":254.9944,"ARG_OF_PERICENTER":62.5382,"MEAN_ANOMALY":297.6436,"EPHEMERIS_TYPE":0,"NORAD_CAT_ID":55011,"ELEMENT_SET_NO":999,"REV_AT_EPOCH":19550,"BSTAR":0.00042106,"MEAN_MOTION_DOT":0.00023919,"MEAN_MOTION_DDOT":0},{"OBJECT_NAME":"BRO-11","OBJECT_ID":"2023-174J","EPOCH":"2026-07-08T11:20:34.668672","CLASSIFICATION_TYPE":"U","MEAN_MOTION":15.27552278,"ECCENTRICITY":0.0011735,"INCLINATION":97.3898,"RA_OF_ASC_NODE":266.1229,"ARG_OF_PERICENTER":128.1982,"MEAN_ANOMALY":232.0316,"EPHEMERIS_TYPE":0,"NORAD_CAT_ID":58264,"ELEMENT_SET_NO":999,"REV_AT_EPOCH":14800,"BSTAR":0.00010921,"MEAN_MOTION_DOT":0.00002873,"MEAN_MOTION_DDOT":0},{"OBJECT_NAME":"BRO-13","OBJECT_ID":"2024-043K","EPOCH":"2026-07-08T13:17:49.685856","CLASSIFICATION_TYPE":"U","MEAN_MOTION":14.96639819,"ECCENTRICITY":0.0007754,"INCLINATION":97.8516,"RA_OF_ASC_NODE":320.6436,"ARG_OF_PERICENTER":289.4226,"MEAN_ANOMALY":70.6157,"EPHEMERIS_TYPE":0,"NORAD_CAT_ID":59107,"ELEMENT_SET_NO":999,"REV_AT_EPOCH":12781,"BSTAR":0.000062002,"MEAN_MOTION_DOT":0.00000647,"MEAN_MOTION_DDOT":0},{"OBJECT_NAME":"BRO-12","OBJECT_ID":"2024-043L","EPOCH":"2026-07-08T11:30:57.127968","CLASSIFICATION_TYPE":"U","MEAN_MOTION":14.9688565,"ECCENTRICITY":0.0007076,"INCLINATION":97.8505,"RA_OF_ASC_NODE":320.737,"ARG_OF_PERICENTER":284.95,"MEAN_ANOMALY":75.0937,"EPHEMERIS_TYPE":0,"NORAD_CAT_ID":59108,"ELEMENT_SET_NO":999,"REV_AT_EPOCH":12782,"BSTAR":0.000034353,"MEAN_MOTION_DOT":0.00000334,"MEAN_MOTION_DDOT":0},{"OBJECT_NAME":"BRO-14","OBJECT_ID":"2024-149CM","EPOCH":"2026-07-08T11:05:46.550112","CLASSIFICATION_TYPE":"U","MEAN_MOTION":14.96225728,"ECCENTRICITY":0.0007328,"INCLINATION":97.6862,"RA_OF_ASC_NODE":264.8578,"ARG_OF_PERICENTER":36.5112,"MEAN_ANOMALY":323.6608,"EPHEMERIS_TYPE":0,"NORAD_CAT_ID":60551,"ELEMENT_SET_NO":999,"REV_AT_EPOCH":10317,"BSTAR":0.000049245,"MEAN_MOTION_DOT":0.00000498,"MEAN_MOTION_DDOT":0},{"OBJECT_NAME":"BRO-15","OBJECT_ID":"2024-149CP","EPOCH":"2026-07-07T18:37:45.636096","CLASSIFICATION_TYPE":"U","MEAN_MOTION":14.96220855,"ECCENTRICITY":0.0008854,"INCLINATION":97.6802,"RA_OF_ASC_NODE":263.7665,"ARG_OF_PERICENTER":28.9084,"MEAN_ANOMALY":331.2626,"EPHEMERIS_TYPE":0,"NORAD_CAT_ID":60553,"ELEMENT_SET_NO":999,"REV_AT_EPOCH":10308,"BSTAR":0.00011331,"MEAN_MOTION_DOT":0.00001221,"MEAN_MOTION_DDOT":0},{"OBJECT_NAME":"BRO-16","OBJECT_ID":"2025-009AX","EPOCH":"2026-07-07T18:16:09.499584","CLASSIFICATION_TYPE":"U","MEAN_MOTION":15.24094648,"ECCENTRICITY":0.0001421,"INCLINATION":97.405,"RA_OF_ASC_NODE":268.9935,"ARG_OF_PERICENTER":170.287,"MEAN_ANOMALY":189.8395,"EPHEMERIS_TYPE":0,"NORAD_CAT_ID":62654,"ELEMENT_SET_NO":999,"REV_AT_EPOCH":8193,"BSTAR":0.00011618,"MEAN_MOTION_DOT":0.0000275,"MEAN_MOTION_DDOT":0},{"OBJECT_NAME":"BRO-18","OBJECT_ID":"2025-135Y","EPOCH":"2026-07-08T13:14:54.191904","CLASSIFICATION_TYPE":"U","MEAN_MOTION":15.22136459,"ECCENTRICITY":0.0002204,"INCLINATION":97.4645,"RA_OF_ASC_NODE":304.4191,"ARG_OF_PERICENTER":124.102,"MEAN_ANOMALY":236.0425,"EPHEMERIS_TYPE":0,"NORAD_CAT_ID":64550,"ELEMENT_SET_NO":999,"REV_AT_EPOCH":5812,"BSTAR":0.00011904,"MEAN_MOTION_DOT":0.00002658,"MEAN_MOTION_DDOT":0},{"OBJECT_NAME":"BRO-17","OBJECT_ID":"2025-276G","EPOCH":"2026-07-08T11:21:16.150176","CLASSIFICATION_TYPE":"U","MEAN_MOTION":15.1812924,"ECCENTRICITY":0.0005132,"INCLINATION":97.4184,"RA_OF_ASC_NODE":262.1716,"ARG_OF_PERICENTER":289.978,"MEAN_ANOMALY":70.0901,"EPHEMERIS_TYPE":0,"NORAD_CAT_ID":66672,"ELEMENT_SET_NO":999,"REV_AT_EPOCH":3362,"BSTAR":0.0001,"MEAN_MOTION_DOT":0.00001974,"MEAN_MOTION_DDOT":0},{"OBJECT_NAME":"BRO-20","OBJECT_ID":"2025-276J","EPOCH":"2026-07-08T10:47:49.047072","CLASSIFICATION_TYPE":"U","MEAN_MOTION":15.18300853,"ECCENTRICITY":0.0004757,"INCLINATION":97.4161,"RA_OF_ASC_NODE":262.1373,"ARG_OF_PERICENTER":294.8132,"MEAN_ANOMALY":65.2607,"EPHEMERIS_TYPE":0,"NORAD_CAT_ID":66674,"ELEMENT_SET_NO":999,"REV_AT_EPOCH":3362,"BSTAR":0.000087527,"MEAN_MOTION_DOT":0.00001728,"MEAN_MOTION_DDOT":0},{"OBJECT_NAME":"BRO-19","OBJECT_ID":"2026-067G","EPOCH":"2026-07-08T07:53:10.201056","CLASSIFICATION_TYPE":"U","MEAN_MOTION":15.18957658,"ECCENTRICITY":0.0002311,"INCLINATION":97.4488,"RA_OF_ASC_NODE":147.4842,"ARG_OF_PERICENTER":116.3465,"MEAN_ANOMALY":243.8007,"EPHEMERIS_TYPE":0,"NORAD_CAT_ID":68422,"ELEMENT_SET_NO":999,"REV_AT_EPOCH":1515,"BSTAR":0.00010075,"MEAN_MOTION_DOT":0.00002038,"MEAN_MOTION_DDOT":0},{"OBJECT_NAME":"BRO-21","OBJECT_ID":"2026-100AD","EPOCH":"2026-07-08T10:24:00.112032","CLASSIFICATION_TYPE":"U","MEAN_MOTION":15.21598335,"ECCENTRICITY":0.0007565,"INCLINATION":97.402,"RA_OF_ASC_NODE":86.9797,"ARG_OF_PERICENTER":354.3279,"MEAN_ANOMALY":5.787,"EPHEMERIS_TYPE":0,"NORAD_CAT_ID":69007,"ELEMENT_SET_NO":999,"REV_AT_EPOCH":1003,"BSTAR":0.000070435,"MEAN_MOTION_DOT":0.00001521,"MEAN_MOTION_DDOT":0},{"OBJECT_NAME":"BRO-22","OBJECT_ID":"2026-132C","EPOCH":"2026-07-08T10:27:39.180096","CLASSIFICATION_TYPE":"U","MEAN_MOTION":14.99794107,"ECCENTRICITY":0.0015836,"INCLINATION":97.6834,"RA_OF_ASC_NODE":252.8439,"ARG_OF_PERICENTER":205.4401,"MEAN_ANOMALY":154.6044,"EPHEMERIS_TYPE":0,"NORAD_CAT_ID":69504,"ELEMENT_SET_NO":999,"REV_AT_EPOCH":396,"BSTAR":0.000073462,"MEAN_MOTION_DOT":0.00000851,"MEAN_MOTION_DDOT":0}]}
