BRO-1                   
1 44495U 19054A   26189.29045265  .00620391  19596-3  81974-3 0  9990
2 44495  44.9844 161.5574 0008260 120.2181 239.9551 16.05929499383115
BRO-5                   
1 51061U 22002CF  26189.51876394  .00020440  00000+0  38422-3 0  9999
2 51061  97.2984 263.3927 0004675 229.0872 130.9975 15.48596866249555
BRO-6                   
1 52422U 22047AE  26189.55327674  .00031325  00000+0  51785-3 0  9997
2 52422  97.3388 281.0409 0003155 347.0626  13.0545 15.52167960234460
BRO-8                   
1 55011U 23001C   26189.48556178  .00023919  00000+0  42106-3 0  9997
2 55011  97.3191 254.9944 0005570  62.5382 297.6436 15.50436111195508
BRO-11                  
1 58264U 23174J   26189.47262348  .00002873  00000+0  10921-3 0  9999
2 58264  97.3898 266.1229 0011735 128.1982 232.0316 15.27552278148001
BRO-13                  
1 59107U 24043K   26189.55404729  .00000647  00000+0  62002-4 0  9997
2 59107  97.8516 320.6436 0007754 289.4226  70.6157 14.96639819127811
BRO-12                  
1 59108U 24043L   26189.47982787  .00000334  00000+0  34353-4 0  9995
2 59108  97.8505 320.7370 0007076 284.9500  75.0937 14.96885650127822
BRO-14                  
1 60551U 24149CM  26189.46234433  .00000498  00000+0  49245-4 0  9990
2 60551  97.6862 264.8578 0007328  36.5112 323.6608 14.96225728103171
BRO-15                  
1 60553U 24149CP  26188.77622264  .00001221  00000+0  11331-3 0  9997
2 60553  97.6802 263.7665 0008854  28.9084 331.2626 14.96220855103081
BRO-16                  
1 62654U 25009AX  26188.76122106  .00002750  00000+0  11618-3 0  9992
2 62654  97.4050 268.9935 0001421 170.2870 189.8395 15.24094648 81932
BRO-18                  
1 64550U 25135Y   26189.55201611  .00002658  00000+0  11904-3 0  9991
2 64550  97.4645 304.4191 0002204 124.1020 236.0425 15.22136459 58123
BRO-17                  
1 66672U 25276G   26189.47310359  .00001974  00000+0  10000-3 0  9991
2 66672  97.4184 262.1716 0005132 289.9780  70.0901 15.18129240 33625
BRO-20                  
1 66674U 25276J   26189.44987323  .00001728  00000+0  87527-4 0  9997
2 66674  97.4161 262.1373 0004757 294.8132  65.2607 15.18300853 33629
BRO-19                  
1 68422U 26067G   26189.32859029  .00002038  00000+0  10075-3 0  9995
2 68422  97.4488 147.4842 0002311 116.3465 243.8007 15.18957658 15158
BRO-21                  
1 69007U 26100AD  26189.43333463  .00001521  00000+0  70435-4 0  9997
2 69007  97.4020  86.9797 0007565 354.3279   5.7870 15.21598335 10031
BRO-22                  
1 69504U 26132C   26189.43587014  .00000851  00000+0  73462-4 0  9995
2 69504  97.6834 252.8439 0015836 205.4401 154.6044 14.99794107  3968
